CTC2_L_00320016-03
1 10062U 22515KG  26075.70045139  .00000000  00000+0  00000-0 0  9992
2 10062  75.0000 180.0000 0000000   0.0000   0.0000 13.69880518    12
CTC2_L_00320016-04
1 10063U 25138KG  26075.70045139  .00000000  00000+0  00000-0 0  9997
2 10063  75.0000 180.0000 0000000   0.0000  90.0000 13.69880518    12
CTC2_L_00320017-01
1 10064U 25742IQ  26075.70045139  .00000000  00000+0  00000-0 0  9999
2 10064  75.0000 192.0000 0000000   0.0000 192.0000 13.69880518    19
CTC2_L_00320017-02
1 10065U 26793YM  26075.70045139  .00000000  00000+0  00000-0 0  9997
2 10065  75.0000 192.0000 0000000   0.0000 282.0000 13.69880518    10
CTC2_L_00320017-03
1 10066U 25268AX  26075.70045139  .00000000  00000+0  00000-0 0  9994
2 10066  75.0000 192.0000 0000000   0.0000  12.0000 13.69880518    12
CTC2_L_00320017-04
1 10067U 23505TH  26075.70045139  .00000000  00000+0  00000-0 0  9997
2 10067  75.0000 192.0000 0000000   0.0000 102.0000 13.69880518    13
CTC2_L_00320018-01
1 10068U 24382RT  26075.70045139  .00000000  00000+0  00000-0 0  9992
2 10068  75.0000 204.0000 0000000   0.0000 204.0000 13.69880518    11
CTC2_L_00320018-02
1 10069U 26319OE  26075.70045139  .00000000  00000+0  00000-0 0  9995
2 10069  75.0000 204.0000 0000000   0.0000 294.0000 13.69880518    11
CTC2_L_00320018-03
1 10070U 26777TN  26075.70045139  .00000000  00000+0  00000-0 0  9995
2 10070  75.0000 204.0000 0000000   0.0000  24.0000 13.69880518    14
CTC2_L_00320018-04
1 10071U 25904YT  26075.70045139  .00000000  00000+0  00000-0 0  9997
2 10071  75.0000 204.0000 0000000   0.0000 114.0000 13.69880518    15
CTC2_L_00320019-01
1 10072U 24046UH  26075.70045139  .00000000  00000+0  00000-0 0  9994
2 10072  75.0000 216.0000 0000000   0.0000 216.0000 13.69880518    12
CTC2_L_00320019-02
1 10073U 23035AW  26075.70045139  .00000000  00000+0  00000-0 0  9992
2 10073  75.0000 216.0000 0000000   0.0000 306.0000 13.69880518    13
CTC2_L_00320019-03
1 10074U 25392CD  26075.70045139  .00000000  00000+0  00000-0 0  9991
2 10074  75.0000 216.0000 0000000   0.0000  36.0000 13.69880518    14
CTC2_L_00320019-04
1 10075U 26176VK  26075.70045139  .00000000  00000+0  00000-0 0  9993
2 10075  75.0000 216.0000 0000000   0.0000 126.0000 13.69880518    15
CTC2_L_00320020-01
1 10076U 25623BT  26075.70045139  .00000000  00000+0  00000-0 0  9990
2 10076  75.0000 228.0000 0000000   0.0000 228.0000 13.69880518    12
CTC2_L_00320020-02
1 10077U 23899NC  26075.70045139  .00000000  00000+0  00000-0 0  9994
2 10077  75.0000 228.0000 0000000   0.0000 318.0000 13.69880518    13
CTC2_L_00320020-03
1 10078U 25210HP  26075.70045139  .00000000  00000+0  00000-0 0  9994
2 10078  75.0000 228.0000 0000000   0.0000  48.0000 13.69880518    14
CTC2_L_00320020-04
1 10079U 22952FJ  26075.70045139  .00000000  00000+0  00000-0 0  9995
2 10079  75.0000 228.0000 0000000   0.0000 138.0000 13.69880518    15
CTC2_L_00320021-01
1 10080U 25550FU  26075.70045139  .00000000  00000+0  00000-0 0  9994
2 10080  75.0000 240.0000 0000000   0.0000 240.0000 13.69880518    15
CTC2_L_00320021-02
1 10081U 22670KW  26075.70045139  .00000000  00000+0  00000-0 0  9995
2 10081  75.0000 240.0000 0000000   0.0000 330.0000 13.69880518    16
CTC2_L_00320021-03
1 10082U 25597FJ  26075.70045139  .00000000  00000+0  00000-0 0  9997
2 10082  75.0000 240.0000 0000000   0.0000  60.0000 13.69880518    17
CTC2_L_00320021-04
1 10083U 26153NC  26075.70045139  .00000000  00000+0  00000-0 0  9997
2 10083  75.0000 240.0000 0000000   0.0000 150.0000 13.69880518    18
CTC2_L_00320022-01
1 10084U 23671CQ  26075.70045139  .00000000  00000+0  00000-0 0  9990
2 10084  75.0000 252.0000 0000000   0.0000 252.0000 13.69880518    15
CTC2_L_00320022-02
1 10085U 23200BM  26075.70045139  .00000000  00000+0  00000-0 0  9999
2 10085  75.0000 252.0000 0000000   0.0000 342.0000 13.69880518    16
CTC2_L_00320022-03
1 10086U 24351JG  26075.70045139  .00000000  00000+0  00000-0 0  9998
2 10086  75.0000 252.0000 0000000   0.0000  72.0000 13.69880518    17
CTC2_L_00320022-04
1 10087U 25400MY  26075.70045139  .00000000  00000+0  00000-0 0  9995
2 10087  75.0000 252.0000 0000000   0.0000 162.0000 13.69880518    18
CTC2_L_00320023-01
1 10088U 23306SC  26075.70045139  .00000000  00000+0  00000-0 0  9999
2 10088  75.0000 264.0000 0000000   0.0000 264.0000 13.69880518    15
CTC2_L_00320023-02
1 10089U 24053OR  26075.70045139  .00000000  00000+0  00000-0 0  9990
2 10089  75.0000 264.0000 0000000   0.0000 354.0000 13.69880518    16
CTC2_L_00320023-03
1 10090U 22738HD  26075.70045139  .00000000  00000+0  00000-0 0  9990
2 10090  75.0000 264.0000 0000000   0.0000  84.0000 13.69880518    18
CTC2_L_00320023-04
1 10091U 22534AX  26075.70045139  .00000000  00000+0  00000-0 0  9995
2 10091  75.0000 264.0000 0000000   0.0000 174.0000 13.69880518    19
CTC2_L_00320024-01
1 10092U 24411QM  26075.70045139  .00000000  00000+0  00000-0 0  9992
2 10092  75.0000 276.0000 0000000   0.0000 276.0000 13.69880518    16
CTC2_L_00320024-02
1 10093U 22864HG  26075.70045139  .00000000  00000+0  00000-0 0  9993
2 10093  75.0000 276.0000 0000000   0.0000   6.0000 13.69880518    18
CTC2_L_00320024-03
1 10094U 22504WU  26075.70045139  .00000000  00000+0  00000-0 0  9995
2 10094  75.0000 276.0000 0000000   0.0000  96.0000 13.69880518    18
CTC2_L_00320024-04
1 10095U 22530BX  26075.70045139  .00000000  00000+0  00000-0 0  9995
2 10095  75.0000 276.0000 0000000   0.0000 186.0000 13.69880518    19
CTC2_L_00320025-01
1 10096U 25244GB  26075.70045139  .00000000  00000+0  00000-0 0  9991
2 10096  75.0000 288.0000 0000000   0.0000 288.0000 13.69880518    16
CTC2_L_00320025-02
1 10097U 22088HR  26075.70045139  .00000000  00000+0  00000-0 0  9995
2 10097  75.0000 288.0000 0000000   0.0000  18.0000 13.69880518    18
CTC2_L_00320025-03
1 10098U 26556QQ  26075.70045139  .00000000  00000+0  00000-0 0  9990
2 10098  75.0000 288.0000 0000000   0.0000 108.0000 13.69880518    19
CTC2_L_00320025-04
1 10099U 25043JL  26075.70045139  .00000000  00000+0  00000-0 0  9991
2 10099  75.0000 288.0000 0000000   0.0000 198.0000 13.69880518    19
CTC2_L_00320026-01
1 10100U 26580NZ  26075.70045139  .00000000  00000+0  00000-0 0  9991
2 10100  75.0000 300.0000 0000000   0.0000 300.0000 13.69880518    12
CTC2_L_00320026-02
1 10101U 26485DD  26075.70045139  .00000000  00000+0  00000-0 0  9996
2 10101  75.0000 300.0000 0000000   0.0000  30.0000 13.69880518    13
CTC2_L_00320026-03
1 10102U 23853DT  26075.70045139  .00000000  00000+0  00000-0 0  9993
2 10102  75.0000 300.0000 0000000   0.0000 120.0000 13.69880518    14
CTC2_L_00320026-04
1 10103U 24432RB  26075.70045139  .00000000  00000+0  00000-0 0  9998
2 10103  75.0000 300.0000 0000000   0.0000 210.0000 13.69880518    15
CTC2_L_00320027-01
1 10104U 25594NW  26075.70045139  .00000000  00000+0  00000-0 0  9999
2 10104  75.0000 312.0000 0000000   0.0000 312.0000 13.69880518    12
CTC2_L_00320027-02
1 10105U 25797SX  26075.70045139  .00000000  00000+0  00000-0 0  9995
2 10105  75.0000 312.0000 0000000   0.0000  42.0000 13.69880518    13
CTC2_L_00320027-03
1 10106U 24078BU  26075.70045139  .00000000  00000+0  00000-0 0  9997
2 10106  75.0000 312.0000 0000000   0.0000 132.0000 13.69880518    14
CTC2_L_00320027-04
1 10107U 22958FC  26075.70045139  .00000000  00000+0  00000-0 0  9993
2 10107  75.0000 312.0000 0000000   0.0000 222.0000 13.69880518    15
CTC2_L_00320028-01
1 10108U 23479PB  26075.70045139  .00000000  00000+0  00000-0 0  9993
2 10108  75.0000 324.0000 0000000   0.0000 324.0000 13.69880518    12
CTC2_L_00320028-02
1 10109U 25999GA  26075.70045139  .00000000  00000+0  00000-0 0  9993
2 10109  75.0000 324.0000 0000000   0.0000  54.0000 13.69880518    13
CTC2_L_00320028-03
1 10110U 22317PP  26075.70045139  .00000000  00000+0  00000-0 0  9996
2 10110  75.0000 324.0000 0000000   0.0000 144.0000 13.69880518    15
CTC2_L_00320028-04
1 10111U 24890VQ  26075.70045139  .00000000  00000+0  00000-0 0  9995
2 10111  75.0000 324.0000 0000000   0.0000 234.0000 13.69880518    16
CTC2_L_00320029-01
1 10112U 25524OQ  26075.70045139  .00000000  00000+0  00000-0 0  9991
2 10112  75.0000 336.0000 0000000   0.0000 336.0000 13.69880518    13
CTC2_L_00320029-02
1 10113U 25329DH  26075.70045139  .00000000  00000+0  00000-0 0  9995
2 10113  75.0000 336.0000 0000000   0.0000  66.0000 13.69880518    14
CTC2_L_00320029-03
1 10114U 26662TJ  26075.70045139  .00000000  00000+0  00000-0 0  9997
2 10114  75.0000 336.0000 0000000   0.0000 156.0000 13.69880518    15
CTC2_L_00320029-04
1 10115U 26023JR  26075.70045139  .00000000  00000+0  00000-0 0  9999
2 10115  75.0000 336.0000 0000000   0.0000 246.0000 13.69880518    16
CTC2_L_00320030-01
1 10116U 26529ZK  26075.70045139  .00000000  00000+0  00000-0 0  9991
2 10116  75.0000 348.0000 0000000   0.0000 348.0000 13.69880518    13
CTC2_L_00320030-02
1 10117U 23828G   26075.70045139  .00000000  00000+0  00000-0 0  9991
2 10117  75.0000 348.0000 0000000   0.0000  78.0000 13.69880518    14
CTC2_L_00320030-03
1 10118U 22466BZ  26075.70045139  .00000000  00000+0  00000-0 0  9999
2 10118  75.0000 348.0000 0000000   0.0000 168.0000 13.69880518    15
CTC2_L_00320030-04
1 10119U 22640TL  26075.70045139  .00000000  00000+0  00000-0 0  9994
2 10119  75.0000 348.0000 0000000   0.0000 258.0000 13.69880518    16
